QIANFAN-57              
1 62787U 25016C   26002.78539247  .00000225  00000+0  32994-3 0  9997
2 62787  88.9785 101.0303 0002581 105.4706 254.6730 13.50983986 50042
QIANFAN-58              
1 62788U 25016D   26002.75653942  .00000220  00000+0  32253-3 0  9997
2 62788  88.9755 100.8584 0012086 281.3868  78.5925 13.50985752 50088
QIANFAN-59              
1 62789U 25016E   26002.78120071  .00000226  00000+0  33229-3 0  9993
2 62789  88.9778 100.9345 0012436 285.7269  74.2510 13.50982073 50088
QIANFAN-60              
1 62790U 25016F   26002.74010697  .00000231  00000+0  33897-3 0  9990
2 62790  88.9759 100.9062 0013981 281.7995  78.1587 13.50991142 50065
QIANFAN-61              
1 62791U 25016G   26002.77295397  .00000216  00000+0  31671-3 0  9997
2 62791  88.9826 101.0798 0012937 281.1425  78.8271 13.50981595 50081
QIANFAN-62              
1 62792U 25016H   26002.77711515  .00000222  00000+0  32467-3 0  9994
2 62792  88.9773 100.9367 0014305 281.5193  78.4352 13.50984150 50075
QIANFAN-63              
1 62793U 25016J   26002.72769708  .00000212  00000+0  30973-3 0  9996
2 62793  88.9780 100.8947 0014344 287.6524  72.3060 13.50982295 50106
QIANFAN-64              
1 62794U 25016K   26002.76884654  .00000223  00000+0  32690-3 0  9999
2 62794  88.9767 100.8617 0012307 279.4664  80.5096 13.50985812 50105
